{
  "type": "FeatureCollection",
  "features": [
    {
      "type": "Feature",
      "properties": {
        "norad_id": 40362,
        "name": "YAOGAN-26",
        "group": "resource",
        "lat": 0.07334723798026468,
        "lon": 157.35905843603672,
        "alt_km": 455.73429097222925,
        "timestamp": "2025-12-02T07:10:08.766461+00:00",
        "meta_object_name": "YAOGAN-26",
        "meta_object_id": "2014-088A",
        "meta_epoch": "2025-12-01T21:01:34.334112",
        "meta_mean_motion": 15.38713389,
        "meta_eccentricity": 0.000747,
        "meta_inclination": 97.0643,
        "meta_ra_of_asc_node": 336.9427,
        "meta_arg_of_pericenter": 58.6412,
        "meta_mean_anomaly": 301.5565,
        "meta_ephemeris_type": 0,
        "meta_classification_type": "U",
        "meta_norad_cat_id": 40362,
        "meta_element_set_no": 999,
        "meta_rev_at_epoch": 60727,
        "meta_bstar": 0.00050854,
        "meta_mean_motion_dot": 0.00019419,
        "meta_mean_motion_ddot": 0,
        "tle_line1": "1 40362U 14088A   25335.87609183  .00019419  00000+0  50854-3 0  9994",
        "tle_line2": "2 40362  97.0643 336.9427 0007470  58.6412 301.5565 15.38713389607279"
      },
      "geometry": {
        "type": "Point",
        "coordinates": [
          157.35905843603672,
          0.07334723798026468
        ]
      }
    },
    {
      "type": "Feature",
      "properties": {
        "norad_id": 40376,
        "name": "SMAP",
        "group": "resource",
        "lat": 27.83669283253524,
        "lon": -23.155593062599447,
        "alt_km": 680.7149734617551,
        "timestamp": "2025-12-02T07:10:08.766471+00:00",
        "meta_object_name": "SMAP",
        "meta_object_id": "2015-003A",
        "meta_epoch": "2025-12-01T19:33:12.862080",
        "meta_mean_motion": 14.63352951,
        "meta_eccentricity": 0.000134,
        "meta_inclination": 98.1292,
        "meta_ra_of_asc_node": 340.6961,
        "meta_arg_of_pericenter": 89.9307,
        "meta_mean_anomaly": 270.2048,
        "meta_ephemeris_type": 0,
        "meta_classification_type": "U",
        "meta_norad_cat_id": 40376,
        "meta_element_set_no": 999,
        "meta_rev_at_epoch": 57875,
        "meta_bstar": 0.00013247,
        "meta_mean_motion_dot": 6.37e-06,
        "meta_mean_motion_ddot": 0,
        "tle_line1": "1 40376U 15003A   25335.81473220  .00000637  00000+0  13247-3 0  9999",
        "tle_line2": "2 40376  98.1292 340.6961 0001340  89.9307 270.2048 14.63352951578750"
      },
      "geometry": {
        "type": "Point",
        "coordinates": [
          -23.155593062599447,
          27.83669283253524
        ]
      }
    },
    {
      "type": "Feature",
      "properties": {
        "norad_id": 40536,
        "name": "KOMPSAT-3A",
        "group": "resource",
        "lat": -53.79183246195947,
        "lon": -39.30795685458417,
        "alt_km": 445.45527539876,
        "timestamp": "2025-12-02T07:10:08.766482+00:00",
        "meta_object_name": "KOMPSAT-3A",
        "meta_object_id": "2015-014A",
        "meta_epoch": "2025-12-01T20:30:45.431136",
        "meta_mean_motion": 15.43345634,
        "meta_eccentricity": 0.0003518,
        "meta_inclination": 97.6769,
        "meta_ra_of_asc_node": 309.6066,
        "meta_arg_of_pericenter": 149.9699,
        "meta_mean_anomaly": 210.175,
        "meta_ephemeris_type": 0,
        "meta_classification_type": "U",
        "meta_norad_cat_id": 40536,
        "meta_element_set_no": 999,
        "meta_rev_at_epoch": 59127,
        "meta_bstar": 0.00044223,
        "meta_mean_motion_dot": 0.00019653,
        "meta_mean_motion_ddot": 0,
        "tle_line1": "1 40536U 15014A   25335.85469249  .00019653  00000+0  44223-3 0  9995",
        "tle_line2": "2 40536  97.6769 309.6066 0003518 149.9699 210.1750 15.43345634591276"
      },
      "geometry": {
        "type": "Point",
        "coordinates": [
          -39.30795685458417,
          -53.79183246195947
        ]
      }
    },
    {
      "type": "Feature",
      "properties": {
        "norad_id": 40697,
        "name": "SENTINEL-2A",
        "group": "resource",
        "lat": 36.06082981406011,
        "lon": 42.67529432696326,
        "alt_km": 786.0337717681678,
        "timestamp": "2025-12-02T07:10:08.766492+00:00",
        "meta_object_name": "SENTINEL-2A",
        "meta_object_id": "2015-028A",
        "meta_epoch": "2025-12-01T19:15:02.496672",
        "meta_mean_motion": 14.30820055,
        "meta_eccentricity": 0.0001043,
        "meta_inclination": 98.5707,
        "meta_ra_of_asc_node": 48.4904,
        "meta_arg_of_pericenter": 93.5597,
        "meta_mean_anomaly": 266.5705,
        "meta_ephemeris_type": 0,
        "meta_classification_type": "U",
        "meta_norad_cat_id": 40697,
        "meta_element_set_no": 999,
        "meta_rev_at_epoch": 54550,
        "meta_bstar": 8.2928e-05,
        "meta_mean_motion_dot": 1.74e-06,
        "meta_mean_motion_ddot": 0,
        "tle_line1": "1 40697U 15028A   25335.80211223  .00000174  00000+0  82928-4 0  9993",
        "tle_line2": "2 40697  98.5707  48.4904 0001043  93.5597 266.5705 14.30820055545507"
      },
      "geometry": {
        "type": "Point",
        "coordinates": [
          42.67529432696326,
          36.06082981406011
        ]
      }
    },
    {
      "type": "Feature",
      "properties": {
        "norad_id": 40701,
        "name": "GAOFEN-8",
        "group": "resource",
        "lat": 10.549810655553246,
        "lon": 152.49199018998192,
        "alt_km": 461.0026361271539,
        "timestamp": "2025-12-02T07:10:08.766503+00:00",
        "meta_object_name": "GAOFEN-8",
        "meta_object_id": "2015-030A",
        "meta_epoch": "2025-12-01T20:11:32.584704",
        "meta_mean_motion": 15.37974341,
        "meta_eccentricity": 0.0011135,
        "meta_inclination": 97.691,
        "meta_ra_of_asc_node": 153.4551,
        "meta_arg_of_pericenter": 176.7658,
        "meta_mean_anomaly": 183.366,
        "meta_ephemeris_type": 0,
        "meta_classification_type": "U",
        "meta_norad_cat_id": 40701,
        "meta_element_set_no": 999,
        "meta_rev_at_epoch": 58103,
        "meta_bstar": 0.00051961,
        "meta_mean_motion_dot": 0.00019385,
        "meta_mean_motion_ddot": 0,
        "tle_line1": "1 40701U 15030A   25335.84134936  .00019385  00000+0  51961-3 0  9997",
        "tle_line2": "2 40701  97.6910 153.4551 0011135 176.7658 183.3660 15.37974341581039"
      },
      "geometry": {
        "type": "Point",
        "coordinates": [
          152.49199018998192,
          10.549810655553246
        ]
      }
    },
    {
      "type": "Feature",
      "properties": {
        "norad_id": 40718,
        "name": "CARBONITE 1 (CBNT-1)",
        "group": "resource",
        "lat": -47.66024976984978,
        "lon": -30.66882130161964,
        "alt_km": 618.3448038314546,
        "timestamp": "2025-12-02T07:10:08.766513+00:00",
        "meta_object_name": "CARBONITE 1 (CBNT-1)",
        "meta_object_id": "2015-032D",
        "meta_epoch": "2025-12-01T20:25:28.756992",
        "meta_mean_motion": 14.82658735,
        "meta_eccentricity": 0.0013746,
        "meta_inclination": 97.6403,
        "meta_ra_of_asc_node": 157.3749,
        "meta_arg_of_pericenter": 218.4066,
        "meta_mean_anomaly": 141.617,
        "meta_ephemeris_type": 0,
        "meta_classification_type": "U",
        "meta_norad_cat_id": 40718,
        "meta_element_set_no": 999,
        "meta_rev_at_epoch": 56009,
        "meta_bstar": 0.00034668,
        "meta_mean_motion_dot": 2.748e-05,
        "meta_mean_motion_ddot": 0,
        "tle_line1": "1 40718U 15032D   25335.85102728  .00002748  00000+0  34668-3 0  9992",
        "tle_line2": "2 40718  97.6403 157.3749 0013746 218.4066 141.6170 14.82658735560094"
      },
      "geometry": {
        "type": "Point",
        "coordinates": [
          -30.66882130161964,
          -47.66024976984978
        ]
      }
    },
    {
      "type": "Feature",
      "properties": {
        "norad_id": 40878,
        "name": "YAOGAN-27",
        "group": "resource",
        "lat": 58.53978029815749,
        "lon": -50.54498861541885,
        "alt_km": 1195.8210141046602,
        "timestamp": "2025-12-02T07:10:08.766524+00:00",
        "meta_object_name": "YAOGAN-27",
        "meta_object_id": "2015-040A",
        "meta_epoch": "2025-12-01T21:44:33.402624",
        "meta_mean_motion": 13.16059607,
        "meta_eccentricity": 0.0007772,
        "meta_inclination": 100.1003,
        "meta_ra_of_asc_node": 326.0163,
        "meta_arg_of_pericenter": 313.3739,
        "meta_mean_anomaly": 46.6727,
        "meta_ephemeris_type": 0,
        "meta_classification_type": "U",
        "meta_norad_cat_id": 40878,
        "meta_element_set_no": 999,
        "meta_rev_at_epoch": 49171,
        "meta_bstar": 9.1522e-05,
        "meta_mean_motion_dot": -8e-08,
        "meta_mean_motion_ddot": 0,
        "tle_line1": "1 40878U 15040A   25335.90594216 -.00000008  00000+0  91522-4 0  9992",
        "tle_line2": "2 40878 100.1003 326.0163 0007772 313.3739  46.6727 13.16059607491719"
      },
      "geometry": {
        "type": "Point",
        "coordinates": [
          -50.54498861541885,
          58.53978029815749
        ]
      }
    }
  ]
}